CZ-2C R/B               
1 28222U 04012C   25157.54721300  .00014416  00000+0  31426-3 0  9999
2 28222  97.7670 196.2422 0022289 231.1050 128.8209 15.44104544161443
SL-16 R/B               
1 28353U 04021B   25157.53154023 -.00000252  00000+0 -10632-3 0  9996
2 28353  71.0009  92.0098 0002649 105.8593 254.2822 14.14550424 83781
CZ-4B R/B               
1 28415U 04035C   25157.84376316  .00005230  00000+0  21483-3 0  9990
2 28415  97.3800 190.9176 0034816 221.0366 138.8251 15.24078739137830
CZ-2C R/B               
1 28480U 04046B   25157.55509003  .00000131  00000+0  64466-4 0  9997
2 28480  98.1942  84.8087 0138490 251.3297 107.2808 14.26832564 69121
ARIANE 5 R/B            
1 28499U 04049H   25157.41130232  .00001171  00000+0  13725-3 0  9995
2 28499  98.2329 311.2324 0085746 165.4436 194.9277 14.84496268104794
CZ-2D R/B               
1 28738U 05024B   25157.58640914  .00013981  00000+0  31376-3 0  9990
2 28738  97.3671 161.5519 0004657 332.2717  27.8282 15.43489058 97011
ALOS (DAICHI)           
1 28931U 06002A   25157.81930411  .00001463  00000+0  25965-3 0  9991
2 28931  98.0840 111.0955 0002307  84.4588 275.6880 14.68704955 33354
H-2A R/B                
1 28932U 06002B   25157.29654297  .00005588  00000+0  32616-3 0  9992
2 28932  98.2105 277.5402 0059881  98.4370 262.3652 15.10872281 52637
RESURS-DK 1             
1 29228U 06021A   25157.48838181  .00001799  00000+0  11395-3 0  9990
2 29228  69.9340 230.3840 0005967 216.6385 143.4373 15.10954578 45788
GENESIS 1               
1 29252U 06029A   25157.07441178  .00263396  34586-4  60565-3 0  9993
2 29252  64.4975  16.8224 0025998 277.5573  82.2636 15.96414795 45703
CZ-4B R/B               
1 29507U 06046C   25157.82610688  .00003219  00000+0  17947-3 0  9993
2 29507  97.5959 198.4696 0036904 139.1097 221.2913 15.13737396 18312
CZ-2C R/B               
1 31114U 07010B   25157.33674610  .00000090  00000+0  60171-4 0  9995
2 31114  98.3783 279.7457 0059383  19.0072 341.3303 14.20126744940492
COSMO-SKYMED 1          
1 31598U 07023A   25157.80025192  .00000847  00000+0  91540-4 0  9996
2 31598  97.8873 342.2441 0001408 109.5058 250.6312 14.90965626973748
GENESIS 2               
1 31789U 07028A   25157.86224129  .00085286  00000+0  48871-3 0  9998
2 31789  64.4757  67.3814 0021145 305.7824  54.1362 15.78022876992540
COSMOS 2428             
1 31792U 07029A   25157.42495138  .00000231  00000+0  15010-3 0  9991
2 31792  70.9375  63.2669 0005583 275.7714  84.2770 14.12853726925071
SL-16 R/B               
1 31793U 07029B   25157.88639660  .00000054  00000+0  52848-4 0  9996
2 31793  70.9773  32.1177 0001951 279.4133  91.5216 14.14788564926452
KORONAS-FOTON           
1 33504U 09003A   25157.61414050  .00006529  00000+0  18099-3 0  9999
2 33504  82.4332 201.2096 0013551  71.4351 288.8363 15.36644484903392
CZ-2C R/B               
1 37731U 11030B   25157.81498961  .00000982  00000+0  13305-3 0  9995
2 37731  97.8143 116.5724 0053856 166.4220 209.0496 14.80193404749261
H-2A R/B                
1 38341U 12025E   25157.58269398  .00002595  00000+0  25081-3 0  9998
2 38341  98.4367  98.8276 0047564 133.5773 226.9408 14.92974510706997
SHIJIAN-16 (SJ-16)      
1 39358U 13057A   25157.86068316  .00000904  00000+0  93291-4 0  9992
2 39358  74.9719 346.8097 0016371  62.2882 297.9964 14.91349186630449
SL-4 R/B                
1 39679U 14021B   25157.50531600  .00008887  00000+0  24687-3 0  9992
2 39679  51.6078 235.9116 0112807 182.2591 177.7894 15.31525776613855
ALOS-2                  
1 39766U 14029A   25157.84448547  .00001458  00000+0  20205-3 0  9990
2 39766  97.9213 255.3950 0001594  96.5145 263.6248 14.79468121596118
YAOGAN-29               
1 41038U 15069A   25157.86509371  .00000410  00000+0  57657-4 0  9994
2 41038  98.0343 180.2359 0002398 128.2536 231.8893 14.82633819515002
ASTRO-H (HITOMI)        
1 41337U 16012A   25157.85361864  .00002468  00000+0  15052-3 0  9994
2 41337  31.0011 333.5944 0009984  82.3188 277.8583 15.08014378510538
HXMT (HUIYAN)           
1 42758U 17034A   25157.87925630  .00003503  00000+0  20043-3 0  9993
2 42758  43.0142 105.3624 0036286 293.8342  65.8703 15.13768221440710
CZ-2C R/B               
1 43521U 18054D   25157.86245575  .00029598  00000+0  46507-3 0  9992
2 43521  35.1400 354.7578 0032222 154.6001 205.6316 15.52022613385542
SAOCOM 1A               
1 43641U 18076A   25157.84490533  .00000400  00000+0  56775-4 0  9993
2 43641  97.8888 344.9754 0001445  91.2794 268.8585 14.82156695360503
H-2A R/B                
1 43682U 18084L   25157.69980810  .00010040  00000+0  33989-3 0  9994
2 43682  98.8747 313.9764 0031693 251.8731 107.9053 15.30382493363432
SAOCOM 1B               
1 46265U 20059A   25157.80861900  .00000415  00000+0  58669-4 0  9998
2 46265  97.8888 344.0427 0001385  92.2477 267.8895 14.82153461257896
CSS (TIANHE)            
1 48274U 21035A   25157.87725553  .00018554  00000+0  24035-3 0  9997
2 48274  41.4643  83.2077 0005140  17.7610 342.3407 15.58431106234543
COSMOS 2550             
1 48865U 21056A   25157.88492845  .00004867  00000+0  15362-3 0  9997
2 48865  67.1408 155.2639 0008394 268.9811  91.0382 15.33838448221172
CZ-2C R/B               
1 52794U 22058K   25157.60369423  .00016741  00000+0  40180-3 0  9991
2 52794  50.1938 280.4406 0056333 133.0972 227.4726 15.39809585167427
GSLV R/B                
1 54149U 22138AN  25157.54141789  .00002355  00000+0  21274-3 0  9991
2 54149  87.3789 258.8271 0024746  76.2343 284.1639 14.94794927142655
XRISM                   
1 57800U 23137A   25157.58904626  .00003863  00000+0  23882-3 0  9991
2 57800  31.0023 264.2607 0008100 146.2174 213.8981 15.08046419 96030
ACS3                    
1 59588U 24077B   25157.43875026  .00007082  00000+0  69676-2 0  9992
2 59588  97.4783 154.0543 0058856  84.3399 276.4465 13.78185961 56010
